IXPE                    
1 49954U 21121A   24250.58334491  .00017474  00000+0  13091-2 0  9996
2 49954   0.2294 148.7636 0009097  45.9797 112.5786 14.99650828  4704
